start=new Date('2022-10-01T00:00:00.000Z').valueOf();
sats=[{"MEAN_ANOMALY":"316.7879","CLASSIFICATION_TYPE":"U","MEAN_ELEMENT_THEORY":"SGP4","LAUNCH_DATE":"2022-03-03","NORAD_CAT_ID":"51866","SEMIMAJOR_AXIS":"6917.871","APOAPSIS":"541.076","INCLINATION":"53.2154","COUNTRY_CODE":"US","RA_OF_ASC_NODE":"249.7032","RCS_SIZE":"LARGE","DECAY_DATE":null,"GP_ID":"213844751","MEAN_MOTION":"15.08842989","PERIAPSIS":"538.396","OBJECT_ID":"2022-022Q","PERIOD":"95.437","OBJECT_TYPE":"PAYLOAD","EPHEMERIS_TYPE":"0","ECCENTRICITY":"0.00019370","MEAN_MOTION_DDOT":"0.0000000000000","EPOCH":"2022-09-30T04:51:06.600672","ELEMENT_SET_NO":"999","TLE_LINE2":"2 51866  53.2154 249.7032 0001937  43.3265 316.7879 15.08842989 33425","OBJECT_NAME":"STARLINK-3553","TLE_LINE1":"1 51866U 22022Q   22273.20215973  .00001707  00000-0  12530-3 0  9998","CENTER_NAME":"EARTH","BSTAR":"0.00012530000000","ARG_OF_PERICENTER":"43.3265","REF_FRAME":"TEME","REV_AT_EPOCH":"3342","FILE":"3587345","SITE":"AFETR","MEAN_MOTION_DOT":"0.00001707","TIME_SYSTEM":"UTC"},{"BSTAR":"0.00009593500000","CENTER_NAME":"EARTH","MEAN_MOTION_DOT":"0.00001239","TIME_SYSTEM":"UTC","SITE":"AFETR","FILE":"3587966","REV_AT_EPOCH":"3349","REF_FRAME":"TEME","ARG_OF_PERICENTER":"61.1772","MEAN_MOTION_DDOT":"0.0000000000000","ECCENTRICITY":"0.00016200","EPHEMERIS_TYPE":"0","OBJECT_TYPE":"PAYLOAD","PERIOD":"95.438","OBJECT_ID":"2022-022R","TLE_LINE1":"1 51867U 22022R   22273.65112992  .00001239  00000-0  95935-4 0  9996","OBJECT_NAME":"STARLINK-3590","ELEMENT_SET_NO":"999","TLE_LINE2":"2 51867  53.2155 247.7106 0001620  61.1772 298.9383 15.08839787 33497","EPOCH":"2022-09-30T15:37:37.625088","RA_OF_ASC_NODE":"247.7106","COUNTRY_CODE":"US","PERIAPSIS":"538.625","MEAN_MOTION":"15.08839787","GP_ID":"213907716","DECAY_DATE":null,"RCS_SIZE":"LARGE","NORAD_CAT_ID":"51867","LAUNCH_DATE":"2022-03-03","MEAN_ELEMENT_THEORY":"SGP4","CLASSIFICATION_TYPE":"U","MEAN_ANOMALY":"298.9383","APOAPSIS":"540.867","INCLINATION":"53.2155","SEMIMAJOR_AXIS":"6917.881"},{"FILE":"3587966","SITE":"AFETR","MEAN_MOTION_DOT":"0.00001526","TIME_SYSTEM":"UTC","REF_FRAME":"TEME","ARG_OF_PERICENTER":"56.8017","REV_AT_EPOCH":"3349","BSTAR":"0.00011398000000","CENTER_NAME":"EARTH","OBJECT_NAME":"STARLINK-3578","TLE_LINE1":"1 51868U 22022S   22273.65847968  .00001526  00000-0  11398-3 0  9994","EPOCH":"2022-09-30T15:48:12.644352","ELEMENT_SET_NO":"999","TLE_LINE2":"2 51868  53.2155 247.6728 0001798  56.8017 303.3148 15.08841536 33491","ECCENTRICITY":"0.00017980","MEAN_MOTION_DDOT":"0.0000000000000","OBJECT_ID":"2022-022S","PERIOD":"95.437","OBJECT_TYPE":"PAYLOAD","EPHEMERIS_TYPE":"0","MEAN_MOTION":"15.08841536","PERIAPSIS":"538.497","RCS_SIZE":"LARGE","DECAY_DATE":null,"GP_ID":"213907944","RA_OF_ASC_NODE":"247.6728","COUNTRY_CODE":"US","SEMIMAJOR_AXIS":"6917.876","INCLINATION":"53.2155","APOAPSIS":"540.985","NORAD_CAT_ID":"51868","MEAN_ANOMALY":"303.3148","CLASSIFICATION_TYPE":"U","LAUNCH_DATE":"2022-03-03","MEAN_ELEMENT_THEORY":"SGP4"},{"LAUNCH_DATE":"2022-03-03","MEAN_ELEMENT_THEORY":"SGP4","CLASSIFICATION_TYPE":"U","MEAN_ANOMALY":"306.2720","NORAD_CAT_ID":"51869","APOAPSIS":"540.917","INCLINATION":"53.2165","SEMIMAJOR_AXIS":"6917.897","COUNTRY_CODE":"US","RA_OF_ASC_NODE":"247.7588","GP_ID":"213906715","DECAY_DATE":null,"RCS_SIZE":"LARGE","PERIAPSIS":"538.607","MEAN_MOTION":"15.08834630","EPHEMERIS_TYPE":"0","OBJECT_TYPE":"PAYLOAD","PERIOD":"95.438","OBJECT_ID":"2022-022T","MEAN_MOTION_DDOT":"0.0000000000000","ECCENTRICITY":"0.00016700","TLE_LINE2":"2 51869  53.2165 247.7588 0001670  53.8426 306.2720 15.08834630 33493","ELEMENT_SET_NO":"999","EPOCH":"2022-09-30T15:21:43.723296","OBJECT_NAME":"STARLINK-3588","TLE_LINE1":"1 51869U 22022T   22273.64008939  .00000091  00000-0  23843-4 0  9996","CENTER_NAME":"EARTH","BSTAR":"0.00002384300000","REV_AT_EPOCH":"3349","ARG_OF_PERICENTER":"53.8426","REF_FRAME":"TEME","MEAN_MOTION_DOT":"0.00000091","TIME_SYSTEM":"UTC","SITE":"AFETR","FILE":"3587966"},{"RA_OF_ASC_NODE":"247.7264","COUNTRY_CODE":"US","PERIAPSIS":"538.393","MEAN_MOTION":"15.08843120","DECAY_DATE":null,"GP_ID":"213906965","RCS_SIZE":"LARGE","NORAD_CAT_ID":"51870","CLASSIFICATION_TYPE":"U","LAUNCH_DATE":"2022-03-03","MEAN_ELEMENT_THEORY":"SGP4","MEAN_ANOMALY":"307.1520","INCLINATION":"53.2142","APOAPSIS":"541.079","SEMIMAJOR_AXIS":"6917.871","BSTAR":"0.00070597000000","CENTER_NAME":"EARTH","TIME_SYSTEM":"UTC","MEAN_MOTION_DOT":"0.00010966","FILE":"3587966","SITE":"AFETR","REV_AT_EPOCH":"3354","ARG_OF_PERICENTER":"52.9649","REF_FRAME":"TEME","ECCENTRICITY":"0.00019410","MEAN_MOTION_DDOT":"0.0000000000000","EPHEMERIS_TYPE":"0","PERIOD":"95.437","OBJECT_ID":"2022-022U","OBJECT_TYPE":"PAYLOAD","TLE_LINE1":"1 51870U 22022U   22273.64743968  .00010966  00000-0  70597-3 0  9995","OBJECT_NAME":"STARLINK-3591","ELEMENT_SET_NO":"999","TLE_LINE2":"2 51870  53.2142 247.7264 0001941  52.9649 307.1520 15.08843120 33547","EPOCH":"2022-09-30T15:32:18.788352"},{"TLE_LINE1":"1 51871U 22022V   22273.63639232  .00002062  00000-0  14758-3 0  9998","OBJECT_NAME":"STARLINK-3567","TLE_LINE2":"2 51871  53.2164 247.7740 0001709  55.0304 305.0849 15.08849378 33604","ELEMENT_SET_NO":"999","EPOCH":"2022-09-30T15:16:24.296448","MEAN_MOTION_DDOT":"0.0000000000000","ECCENTRICITY":"0.00017090","EPHEMERIS_TYPE":"0","OBJECT_TYPE":"PAYLOAD","PERIOD":"95.437","OBJECT_ID":"2022-022V","TIME_SYSTEM":"UTC","MEAN_MOTION_DOT":"0.00002062","SITE":"AFETR","FILE":"3587966","REV_AT_EPOCH":"3360","REF_FRAME":"TEME","ARG_OF_PERICENTER":"55.0304","BSTAR":"0.00014758000000","CENTER_NAME":"EARTH","INCLINATION":"53.2164","APOAPSIS":"540.899","SEMIMAJOR_AXIS":"6917.852","NORAD_CAT_ID":"51871","MEAN_ELEMENT_THEORY":"SGP4","LAUNCH_DATE":"2022-03-03","CLASSIFICATION_TYPE":"U","MEAN_ANOMALY":"305.0849","PERIAPSIS":"538.534","MEAN_MOTION":"15.08849378","GP_ID":"213907217","DECAY_DATE":null,"RCS_SIZE":"LARGE","RA_OF_ASC_NODE":"247.7740","COUNTRY_CODE":"US"},{"BSTAR":"0.00019629000000","CENTER_NAME":"EARTH","FILE":"3587966","SITE":"AFETR","TIME_SYSTEM":"UTC","MEAN_MOTION_DOT":"0.00002839","REF_FRAME":"TEME","ARG_OF_PERICENTER":"60.4284","REV_AT_EPOCH":"3349","ECCENTRICITY":"0.00016650","MEAN_MOTION_DDOT":"0.0000000000000","PERIOD":"95.437","OBJECT_ID":"2022-022W","OBJECT_TYPE":"PAYLOAD","EPHEMERIS_TYPE":"0","OBJECT_NAME":"STARLINK-3554","TLE_LINE1":"1 51872U 22022W   22273.64374502  .00002839  00000-0  19629-3 0  9990","EPOCH":"2022-09-30T15:26:59.569728","ELEMENT_SET_NO":"999","TLE_LINE2":"2 51872  53.2184 247.7364 0001665  60.4284 299.6874 15.08855039 33491","RA_OF_ASC_NODE":"247.7364","COUNTRY_CODE":"US","MEAN_MOTION":"15.08855039","PERIAPSIS":"538.548","RCS_SIZE":"LARGE","DECAY_DATE":null,"GP_ID":"213907445","NORAD_CAT_ID":"51872","MEAN_ANOMALY":"299.6874","CLASSIFICATION_TYPE":"U","LAUNCH_DATE":"2022-03-03","MEAN_ELEMENT_THEORY":"SGP4","SEMIMAJOR_AXIS":"6917.834","INCLINATION":"53.2184","APOAPSIS":"540.851"},{"EPOCH":"2022-09-30T15:00:30.297888","TLE_LINE2":"2 51873  53.2177 247.8015 0001825  54.8024 305.3139 15.08840920 33497","ELEMENT_SET_NO":"999","TLE_LINE1":"1 51873U 22022X   22273.62535067  .00004040  00000-0  27175-3 0  9995","OBJECT_NAME":"STARLINK-3582","PERIOD":"95.437","OBJECT_ID":"2022-022X","OBJECT_TYPE":"PAYLOAD","EPHEMERIS_TYPE":"0","ECCENTRICITY":"0.00018250","MEAN_MOTION_DDOT":"0.0000000000000","REF_FRAME":"TEME","ARG_OF_PERICENTER":"54.8024","REV_AT_EPOCH":"3349","FILE":"3587966","SITE":"AFETR","MEAN_MOTION_DOT":"0.00004040","TIME_SYSTEM":"UTC","CENTER_NAME":"EARTH","BSTAR":"0.00027175000000","SEMIMAJOR_AXIS":"6917.878","INCLINATION":"53.2177","APOAPSIS":"541.005","MEAN_ANOMALY":"305.3139","CLASSIFICATION_TYPE":"U","MEAN_ELEMENT_THEORY":"SGP4","LAUNCH_DATE":"2022-03-03","NORAD_CAT_ID":"51873","RCS_SIZE":"LARGE","DECAY_DATE":null,"GP_ID":"213906216","MEAN_MOTION":"15.08840920","PERIAPSIS":"538.480","COUNTRY_CODE":"US","RA_OF_ASC_NODE":"247.8015"},{"MEAN_MOTION_DDOT":"0.0000000000000","ECCENTRICITY":"0.00017540","OBJECT_TYPE":"PAYLOAD","PERIOD":"95.437","OBJECT_ID":"2022-022Y","EPHEMERIS_TYPE":"0","OBJECT_NAME":"STARLINK-3574","TLE_LINE1":"1 51874U 22022Y   22273.63271629  .00001129  00000-0  89022-4 0  9993","EPOCH":"2022-09-30T15:11:06.687456","TLE_LINE2":"2 51874  53.2177 247.7766 0001754  54.5996 305.5160 15.08841189 33489","ELEMENT_SET_NO":"999","BSTAR":"0.00008902200000","CENTER_NAME":"EARTH","SITE":"AFETR","FILE":"3587966","MEAN_MOTION_DOT":"0.00001129","TIME_SYSTEM":"UTC","ARG_OF_PERICENTER":"54.5996","REF_FRAME":"TEME","REV_AT_EPOCH":"3348","NORAD_CAT_ID":"51874","MEAN_ANOMALY":"305.5160","MEAN_ELEMENT_THEORY":"SGP4","LAUNCH_DATE":"2022-03-03","CLASSIFICATION_TYPE":"U","SEMIMAJOR_AXIS":"6917.877","APOAPSIS":"540.955","INCLINATION":"53.2177","RA_OF_ASC_NODE":"247.7766","COUNTRY_CODE":"US","MEAN_MOTION":"15.08841189","PERIAPSIS":"538.528","RCS_SIZE":"LARGE","GP_ID":"213906466","DECAY_DATE":null},{"EPOCH":"2022-09-30T08:29:45.702816","ELEMENT_SET_NO":"999","TLE_LINE2":"2 51875  53.2193 249.0322 0001812  47.9869 312.1277 15.08835271 33456","OBJECT_NAME":"STARLINK-3585","TLE_LINE1":"1 51875U 22022Z   22273.35400119  .00000172  00000-0  28931-4 0  9990","PERIOD":"95.438","OBJECT_ID":"2022-022Z","OBJECT_TYPE":"PAYLOAD","EPHEMERIS_TYPE":"0","ECCENTRICITY":"0.00018120","MEAN_MOTION_DDOT":"0.0000000000000","ARG_OF_PERICENTER":"47.9869","REF_FRAME":"TEME","REV_AT_EPOCH":"3345","FILE":"3587752","SITE":"AFETR","TIME_SYSTEM":"UTC","MEAN_MOTION_DOT":"0.00000172","CENTER_NAME":"EARTH","BSTAR":"0.00002893100000","SEMIMAJOR_AXIS":"6917.895","APOAPSIS":"541.013","INCLINATION":"53.2193","MEAN_ANOMALY":"312.1277","CLASSIFICATION_TYPE":"U","LAUNCH_DATE":"2022-03-03","MEAN_ELEMENT_THEORY":"SGP4","NORAD_CAT_ID":"51875","RCS_SIZE":"LARGE","DECAY_DATE":null,"GP_ID":"213877148","MEAN_MOTION":"15.08835271","PERIAPSIS":"538.506","COUNTRY_CODE":"US","RA_OF_ASC_NODE":"249.0322"}];
